IRIDIUM 159             
1 43578U 18061K   24221.82368305  .00000066  00000+0  16468-4 0  9999
2 43578  86.4013 339.7837 0002253 102.7030 257.4418 14.34215758316298
IRIDIUM 180             
1 43922U 19002A   24221.89295162 -.00000114  00000+0 -47650-4 0  9998
2 43922  86.3941 276.6257 0002264  97.1153 263.0301 14.34216234291959
IRIDIUM 176             
1 43923U 19002B   24221.18106634  .00002216  00000+0  34729-3 0  9991
2 43923  86.6069 276.9419 0002227  97.6582 262.4888 14.72283032299499
IRIDIUM 168             
1 43924U 19002C   24221.88660769  .00000494  00000+0  16948-3 0  9992
2 43924  86.3941 276.6869 0002198  97.0616 263.0830 14.34220078291890
IRIDIUM 173             
1 43925U 19002D   24221.66461827  .00000145  00000+0  44811-4 0  9997
2 43925  86.3936 276.6961 0002253  95.7264 264.4189 14.34216777291853
IRIDIUM 169             
1 43926U 19002E   24221.57035591  .00000934  00000+0  29869-3 0  9994
2 43926  86.4242 308.3722 0004016  79.1336 281.0314 14.38617767292807
IRIDIUM 172             
1 43927U 19002F   24221.58850237  .00000465  00000+0  15884-3 0  9999
2 43927  86.3940 276.7341 0002168  92.5769 267.5675 14.34220900291849
IRIDIUM 175             
1 43928U 19002G   24220.63175754  .00001200  00000+0  18632-3 0  9991
2 43928  86.1474 247.4033 0002750  89.0513 271.1019 14.72256428299407
